{"fetched_at":"2026-07-12T07:15:21.624Z","source":"https://celestrak.org/NORAD/elements/gp.php?GROUP=planet&FORMAT=JSON","constellation":"superdove","records":[{"OBJECT_NAME":"FLOCK 4BE-3","OBJECT_ID":"2024-149CX","EPOCH":"2026-07-11T19:22:02.671968","CLASSIFICATION_TYPE":"U","MEAN_MOTION":15.42318303,"ECCENTRICITY":0.00045759,"INCLINATION":97.3699,"RA_OF_ASC_NODE":276.9663,"ARG_OF_PERICENTER":178.8358,"MEAN_ANOMALY":181.2901,"EPHEMERIS_TYPE":0,"NORAD_CAT_ID":60561,"ELEMENT_SET_NO":999,"REV_AT_EPOCH":10613,"BSTAR":0.00025410075,"MEAN_MOTION_DOT":0.00010865,"MEAN_MOTION_DDOT":0},{"OBJECT_NAME":"FLOCK 4BE-19","OBJECT_ID":"2024-149CZ","EPOCH":"2026-07-11T19:17:06.594720","CLASSIFICATION_TYPE":"U","MEAN_MOTION":15.4553254,"ECCENTRICITY":0.00055971,"INCLINATION":97.3739,"RA_OF_ASC_NODE":278.6278,"ARG_OF_PERICENTER":184.0624,"MEAN_ANOMALY":176.058,"EPHEMERIS_TYPE":0,"NORAD_CAT_ID":60563,"ELEMENT_SET_NO":999,"REV_AT_EPOCH":10622,"BSTAR":0.00031016148,"MEAN_MOTION_DOT":0.00014817,"MEAN_MOTION_DDOT":0},{"OBJECT_NAME":"FLOCK 4G-8","OBJECT_ID":"2025-009E","EPOCH":"2026-07-11T17:48:29.378016","CLASSIFICATION_TYPE":"U","MEAN_MOTION":15.30199355,"ECCENTRICITY":0.00036127,"INCLINATION":97.4008,"RA_OF_ASC_NODE":274.6497,"ARG_OF_PERICENTER":205.2344,"MEAN_ANOMALY":154.8721,"EPHEMERIS_TYPE":0,"NORAD_CAT_ID":62613,"ELEMENT_SET_NO":999,"REV_AT_EPOCH":8267,"BSTAR":0.00020170029,"MEAN_MOTION_DOT":0.00005817,"MEAN_MOTION_DDOT":0},{"OBJECT_NAME":"FLOCK 4G-13","OBJECT_ID":"2025-009N","EPOCH":"2026-07-11T19:16:16.392864","CLASSIFICATION_TYPE":"U","MEAN_MOTION":15.48502962,"ECCENTRICITY":0.00061982,"INCLINATION":97.395,"RA_OF_ASC_NODE":276.5753,"ARG_OF_PERICENTER":206.6212,"MEAN_ANOMALY":153.4721,"EPHEMERIS_TYPE":0,"NORAD_CAT_ID":62621,"ELEMENT_SET_NO":999,"REV_AT_EPOCH":8280,"BSTAR":0.00092463014,"MEAN_MOTION_DOT":0.0004935,"MEAN_MOTION_DDOT":0},{"OBJECT_NAME":"FLOCK 4G-9","OBJECT_ID":"2025-009P","EPOCH":"2026-07-11T18:15:34.904160","CLASSIFICATION_TYPE":"U","MEAN_MOTION":15.28471377,"ECCENTRICITY":0.00037225,"INCLINATION":97.3961,"RA_OF_ASC_NODE":273.534,"ARG_OF_PERICENTER":219.0607,"MEAN_ANOMALY":141.0364,"EPHEMERIS_TYPE":0,"NORAD_CAT_ID":62622,"ELEMENT_SET_NO":999,"REV_AT_EPOCH":8261,"BSTAR":0.00019958915,"MEAN_MOTION_DOT":0.00005456,"MEAN_MOTION_DDOT":0},{"OBJECT_NAME":"FLOCK 4G-7","OBJECT_ID":"2025-009R","EPOCH":"2026-07-11T18:58:32.705184","CLASSIFICATION_TYPE":"U","MEAN_MOTION":15.29795166,"ECCENTRICITY":0.00021478,"INCLINATION":97.3946,"RA_OF_ASC_NODE":273.9741,"ARG_OF_PERICENTER":193.2999,"MEAN_ANOMALY":166.8185,"EPHEMERIS_TYPE":0,"NORAD_CAT_ID":62624,"ELEMENT_SET_NO":999,"REV_AT_EPOCH":8266,"BSTAR":0.00023106643,"MEAN_MOTION_DOT":0.00006592,"MEAN_MOTION_DDOT":0},{"OBJECT_NAME":"FLOCK 4G-12","OBJECT_ID":"2025-009S","EPOCH":"2026-07-11T17:17:14.372736","CLASSIFICATION_TYPE":"U","MEAN_MOTION":15.29726331,"ECCENTRICITY":0.00037708,"INCLINATION":97.4025,"RA_OF_ASC_NODE":274.4507,"ARG_OF_PERICENTER":201.0722,"MEAN_ANOMALY":159.0363,"EPHEMERIS_TYPE":0,"NORAD_CAT_ID":62625,"ELEMENT_SET_NO":999,"REV_AT_EPOCH":8265,"BSTAR":0.00023198315,"MEAN_MOTION_DOT":0.00006605,"MEAN_MOTION_DDOT":0},{"OBJECT_NAME":"FLOCK 4G-11","OBJECT_ID":"2025-009W","EPOCH":"2026-07-11T18:29:59.232480","CLASSIFICATION_TYPE":"U","MEAN_MOTION":15.29835998,"ECCENTRICITY":0.00022802,"INCLINATION":97.3926,"RA_OF_ASC_NODE":274.0633,"ARG_OF_PERICENTER":195.5087,"MEAN_ANOMALY":164.6084,"EPHEMERIS_TYPE":0,"NORAD_CAT_ID":62629,"ELEMENT_SET_NO":999,"REV_AT_EPOCH":8267,"BSTAR":0.00023573942,"MEAN_MOTION_DOT":0.00006736,"MEAN_MOTION_DDOT":0},{"OBJECT_NAME":"FLOCK 4G-26","OBJECT_ID":"2025-009AA","EPOCH":"2026-07-11T18:50:08.392704","CLASSIFICATION_TYPE":"U","MEAN_MOTION":15.30021209,"ECCENTRICITY":0.00032873,"INCLINATION":97.402,"RA_OF_ASC_NODE":274.6746,"ARG_OF_PERICENTER":188.9425,"MEAN_ANOMALY":171.1757,"EPHEMERIS_TYPE":0,"NORAD_CAT_ID":62633,"ELEMENT_SET_NO":999,"REV_AT_EPOCH":8267,"BSTAR":0.00024397174,"MEAN_MOTION_DOT":0.00007014,"MEAN_MOTION_DDOT":0},{"OBJECT_NAME":"FLOCK 4G-28","OBJECT_ID":"2025-009AB","EPOCH":"2026-07-11T16:43:32.063232","CLASSIFICATION_TYPE":"U","MEAN_MOTION":15.3524256,"ECCENTRICITY":0.00018004,"INCLINATION":97.4028,"RA_OF_ASC_NODE":277.3439,"ARG_OF_PERICENTER":169.7332,"MEAN_ANOMALY":190.3949,"EPHEMERIS_TYPE":0,"NORAD_CAT_ID":62634,"ELEMENT_SET_NO":999,"REV_AT_EPOCH":8284,"BSTAR":0.00016477321,"MEAN_MOTION_DOT":0.00005556,"MEAN_MOTION_DDOT":0},{"OBJECT_NAME":"FLOCK 4G-20","OBJECT_ID":"2025-009AD","EPOCH":"2026-07-11T18:44:44.882592","CLASSIFICATION_TYPE":"U","MEAN_MOTION":15.5981485,"ECCENTRICITY":0.00059857,"INCLINATION":97.3858,"RA_OF_ASC_NODE":278.0667,"ARG_OF_PERICENTER":213.5632,"MEAN_ANOMALY":146.5246,"EPHEMERIS_TYPE":0,"NORAD_CAT_ID":62636,"ELEMENT_SET_NO":999,"REV_AT_EPOCH":8294,"BSTAR":0.0011638697,"MEAN_MOTION_DOT":0.00094235,"MEAN_MOTION_DDOT":0},{"OBJECT_NAME":"FLOCK 4G-24","OBJECT_ID":"2025-009AE","EPOCH":"2026-07-11T15:59:00.376512","CLASSIFICATION_TYPE":"U","MEAN_MOTION":15.30323056,"ECCENTRICITY":0.0003302,"INCLINATION":97.4027,"RA_OF_ASC_NODE":274.8592,"ARG_OF_PERICENTER":175.5958,"MEAN_ANOMALY":184.5313,"EPHEMERIS_TYPE":0,"NORAD_CAT_ID":62637,"ELEMENT_SET_NO":999,"REV_AT_EPOCH":8267,"BSTAR":0.00020086464,"MEAN_MOTION_DOT":0.00005815,"MEAN_MOTION_DDOT":0},{"OBJECT_NAME":"FLOCK 4G-3","OBJECT_ID":"2025-009AG","EPOCH":"2026-07-11T18:55:55.721568","CLASSIFICATION_TYPE":"U","MEAN_MOTION":15.29829033,"ECCENTRICITY":0.00026197,"INCLINATION":97.4027,"RA_OF_ASC_NODE":274.6921,"ARG_OF_PERICENTER":179.6005,"MEAN_ANOMALY":180.5238,"EPHEMERIS_TYPE":0,"NORAD_CAT_ID":62639,"ELEMENT_SET_NO":999,"REV_AT_EPOCH":8266,"BSTAR":0.00022881388,"MEAN_MOTION_DOT":0.00006534,"MEAN_MOTION_DDOT":0},{"OBJECT_NAME":"FLOCK 4G-27","OBJECT_ID":"2025-009AJ","EPOCH":"2026-07-11T19:23:54.752640","CLASSIFICATION_TYPE":"U","MEAN_MOTION":15.29765803,"ECCENTRICITY":0.00021342,"INCLINATION":97.3936,"RA_OF_ASC_NODE":274.0643,"ARG_OF_PERICENTER":179.3825,"MEAN_ANOMALY":180.7418,"EPHEMERIS_TYPE":0,"NORAD_CAT_ID":62641,"ELEMENT_SET_NO":999,"REV_AT_EPOCH":8266,"BSTAR":0.00019173236,"MEAN_MOTION_DOT":0.00005452,"MEAN_MOTION_DDOT":0},{"OBJECT_NAME":"FLOCK 4G-29","OBJECT_ID":"2025-009AK","EPOCH":"2026-07-11T15:54:36.680256","CLASSIFICATION_TYPE":"U","MEAN_MOTION":15.2982204,"ECCENTRICITY":0.00030891,"INCLINATION":97.4024,"RA_OF_ASC_NODE":274.5269,"ARG_OF_PERICENTER":176.2821,"MEAN_ANOMALY":183.8443,"EPHEMERIS_TYPE":0,"NORAD_CAT_ID":62642,"ELEMENT_SET_NO":999,"REV_AT_EPOCH":8264,"BSTAR":0.0001875301,"MEAN_MOTION_DOT":0.0000534,"MEAN_MOTION_DDOT":0},{"OBJECT_NAME":"FLOCK 4G-22","OBJECT_ID":"2025-009AN","EPOCH":"2026-07-11T16:20:53.217600","CLASSIFICATION_TYPE":"U","MEAN_MOTION":15.29726699,"ECCENTRICITY":0.00026854,"INCLINATION":97.4006,"RA_OF_ASC_NODE":274.5806,"ARG_OF_PERICENTER":171.1172,"MEAN_ANOMALY":189.0116,"EPHEMERIS_TYPE":0,"NORAD_CAT_ID":62645,"ELEMENT_SET_NO":999,"REV_AT_EPOCH":8266,"BSTAR":0.00020158688,"MEAN_MOTION_DOT":0.00005729,"MEAN_MOTION_DDOT":0}]}
