FLOCK 4BE-3             
1 60561U 24149CX  26192.80697537  .00010865  00000+0  25410-3 0  9997
2 60561  97.3699 276.9663 0004575 178.8358 181.2901 15.42318303106136
FLOCK 4BE-19            
1 60563U 24149CZ  26192.80354855  .00014817  00000+0  31016-3 0  9992
2 60563  97.3739 278.6278 0005597 184.0624 176.0580 15.45532540106223
FLOCK 4G-8              
1 62613U 25009E   26192.74200669  .00005817  00000+0  20170-3 0  9991
2 62613  97.4008 274.6497 0003612 205.2344 154.8721 15.30199355 82671
FLOCK 4G-13             
1 62621U 25009N   26192.80296751  .00049350  00000+0  92463-3 0  9998
2 62621  97.3950 276.5753 0006198 206.6212 153.4721 15.48502962 82803
FLOCK 4G-9              
1 62622U 25009P   26192.76082065  .00005456  00000+0  19959-3 0  9993
2 62622  97.3961 273.5340 0003722 219.0607 141.0364 15.28471377 82619
FLOCK 4G-7              
1 62624U 25009R   26192.79065631  .00006592  00000+0  23107-3 0  9990
2 62624  97.3946 273.9741 0002147 193.2999 166.8185 15.29795166 82667
FLOCK 4G-12             
1 62625U 25009S   26192.72030524  .00006605  00000+0  23198-3 0  9992
2 62625  97.4025 274.4507 0003770 201.0722 159.0363 15.29726331 82657
FLOCK 4G-11             
1 62629U 25009W   26192.77082445  .00006736  00000+0  23574-3 0  9993
2 62629  97.3926 274.0633 0002280 195.5087 164.6084 15.29835998 82676
FLOCK 4G-26             
1 62633U 25009AA  26192.78481936  .00007014  00000+0  24397-3 0  9991
2 62633  97.4020 274.6746 0003287 188.9425 171.1757 15.30021209 82672
FLOCK 4G-28             
1 62634U 25009AB  26192.69689888  .00005556  00000+0  16477-3 0  9997
2 62634  97.4028 277.3439 0001800 169.7332 190.3949 15.35242560 82848
FLOCK 4G-20             
1 62636U 25009AD  26192.78107503  .00094235  00000+0  11639-2 0  9994
2 62636  97.3858 278.0667 0005985 213.5632 146.5246 15.59814850 82947
FLOCK 4G-24             
1 62637U 25009AE  26192.66597658  .00005815  00000+0  20086-3 0  9999
2 62637  97.4027 274.8592 0003302 175.5958 184.5313 15.30323056 82676
FLOCK 4G-3              
1 62639U 25009AG  26192.78883937  .00006534  00000+0  22881-3 0  9996
2 62639  97.4027 274.6921 0002619 179.6005 180.5238 15.29829033 82665
FLOCK 4G-27             
1 62641U 25009AJ  26192.80827260  .00005452  00000+0  19173-3 0  9997
2 62641  97.3936 274.0643 0002134 179.3825 180.7418 15.29765803 82666
FLOCK 4G-29             
1 62642U 25009AK  26192.66292454  .00005340  00000+0  18753-3 0  9992
2 62642  97.4024 274.5269 0003089 176.2821 183.8443 15.29822040 82644
FLOCK 4G-22             
1 62645U 25009AN  26192.68117150  .00005729  00000+0  20159-3 0  9990
2 62645  97.4006 274.5806 0002685 171.1172 189.0116 15.29726699 82668
